{"type": "FeatureCollection", "features": [ {"type": "Feature", "properties": {"norad_id": 32384, "name": "GPS BIIRM-5 (PRN 29)", "group": "gps-ops", "lat": 18.95868291910472, "lon": 87.87592567217801, "alt_km": 20093.546206721057, "timestamp": "2025-12-11T07:02:23.989131+00:00", "meta": {"OBJECT_NAME": "GPS BIIRM-5 (PRN 29)", "OBJECT_ID": "2007-062A", "EPOCH": "2025-12-10T07:58:35.592096", "MEAN_MOTION": 2.00577123, "ECCENTRICITY": 0.00322309, "INCLINATION": 55.1843, "RA_OF_ASC_NODE": 281.7425, "ARG_OF_PERICENTER": 162.5309, "MEAN_ANOMALY": 20.2379, "EPHEMERIS_TYPE": 0, "CLASSIFICATION_TYPE": "U", "NORAD_CAT_ID": 32384, "ELEMENT_SET_NO": 999, "REV_AT_EPOCH": 13172, "BSTAR": 0, "MEAN_MOTION_DOT": -6.2e-07, "MEAN_MOTION_DDOT": 0}, "tle": {"line1": "1 32384U 07062A   25344.33235639 -.00000062  00000+0  00000+0 0  9994", "line2": "2 32384  55.1843 281.7425 0032230 162.5309  20.2379  2.00577123131727"}}, "geometry": {"type": "Point", "coordinates": [87.87592567217801, 18.95868291910472]}}, {"type": "Feature", "properties": {"norad_id": 32711, "name": "GPS BIIRM-6 (PRN 07)", "group": "gps-ops", "lat": 53.36575233043732, "lon": -128.6468855924474, "alt_km": 20692.821767888603, "timestamp": "2025-12-11T07:02:23.989142+00:00", "meta": {"OBJECT_NAME": "GPS BIIRM-6 (PRN 07)", "OBJECT_ID": "2008-012A", "EPOCH": "2025-12-10T16:18:30.026016", "MEAN_MOTION": 2.00565518, "ECCENTRICITY": 0.02023568, "INCLINATION": 54.4769, "RA_OF_ASC_NODE": 157.4551, "ARG_OF_PERICENTER": 244.9238, "MEAN_ANOMALY": 112.9713, "EPHEMERIS_TYPE": 0, "CLASSIFICATION_TYPE": "U", "NORAD_CAT_ID": 32711, "ELEMENT_SET_NO": 999, "REV_AT_EPOCH": 12997, "BSTAR": 0, "MEAN_MOTION_DOT": 7.9e-07, "MEAN_MOTION_DDOT": 0}, "tle": {"line1": "1 32711U 08012A   25344.67951419  .00000079  00000+0  00000+0 0  9999", "line2": "2 32711  54.4769 157.4551 0202356 244.9238 112.9713  2.00565518129973"}}, "geometry": {"type": "Point", "coordinates": [-128.6468855924474, 53.36575233043732]}}, {"type": "Feature", "properties": {"norad_id": 35752, "name": "GPS BIIRM-8 (PRN 05)", "group": "gps-ops", "lat": 54.47751072350761, "lon": 144.54166161978299, "alt_km": 20045.598132256942, "timestamp": "2025-12-11T07:02:23.989154+00:00", "meta": {"OBJECT_NAME": "GPS BIIRM-8 (PRN 05)", "OBJECT_ID": "2009-043A", "EPOCH": "2025-12-10T15:39:24.141600", "MEAN_MOTION": 2.0056577, "ECCENTRICITY": 0.0051863, "INCLINATION": 56.0896, "RA_OF_ASC_NODE": 34.8654, "ARG_OF_PERICENTER": 81.9471, "MEAN_ANOMALY": 276.3471, "EPHEMERIS_TYPE": 0, "CLASSIFICATION_TYPE": "U", "NORAD_CAT_ID": 35752, "ELEMENT_SET_NO": 999, "REV_AT_EPOCH": 11957, "BSTAR": 0, "MEAN_MOTION_DOT": -9.3e-07, "MEAN_MOTION_DDOT": 0}, "tle": {"line1": "1 35752U 09043A   25344.65236275 -.00000093  00000+0  00000+0 0  9993", "line2": "2 35752  56.0896  34.8654 0051863  81.9471 276.3471  2.00565770119576"}}, "geometry": {"type": "Point", "coordinates": [144.54166161978299, 54.47751072350761]}}, {"type": "Feature", "properties": {"norad_id": 36585, "name": "GPS BIIF-1  (PRN 25)", "group": "gps-ops", "lat": -31.565302776902744, "lon": 62.34120502737217, "alt_km": 20490.061423332525, "timestamp": "2025-12-11T07:02:23.989165+00:00", "meta": {"OBJECT_NAME": "GPS BIIF-1  (PRN 25)", "OBJECT_ID": "2010-022A", "EPOCH": "2025-12-10T05:52:32.460096", "MEAN_MOTION": 2.00553058, "ECCENTRICITY": 0.0126007, "INCLINATION": 54.3005, "RA_OF_ASC_NODE": 216.1746, "ARG_OF_PERICENTER": 65.0446, "MEAN_ANOMALY": 117.4636, "EPHEMERIS_TYPE": 0, "CLASSIFICATION_TYPE": "U", "NORAD_CAT_ID": 36585, "ELEMENT_SET_NO": 999, "REV_AT_EPOCH": 11380, "BSTAR": 0, "MEAN_MOTION_DOT": 1e-07, "MEAN_MOTION_DDOT": 0}, "tle": {"line1": "1 36585U 10022A   25344.24482014  .00000010  00000+0  00000+0 0  9994", "line2": "2 36585  54.3005 216.1746 0126007  65.0446 117.4636  2.00553058113803"}}, "geometry": {"type": "Point", "coordinates": [62.34120502737217, -31.565302776902744]}}, {"type": "Feature", "properties": {"norad_id": 38833, "name": "GPS BIIF-3  (PRN 24)", "group": "gps-ops", "lat": -34.62926063383207, "lon": 120.60082418346028, "alt_km": 20330.555700913566, "timestamp": "2025-12-11T07:02:23.989176+00:00", "meta": {"OBJECT_NAME": "GPS BIIF-3  (PRN 24)", "OBJECT_ID": "2012-053A", "EPOCH": "2025-12-09T20:38:00.572640", "MEAN_MOTION": 2.00564945, "ECCENTRICITY": 0.0175755, "INCLINATION": 53.5569, "RA_OF_ASC_NODE": 151.3565, "ARG_OF_PERICENTER": 63.953, "MEAN_ANOMALY": 297.8432, "EPHEMERIS_TYPE": 0, "CLASSIFICATION_TYPE": "U", "NORAD_CAT_ID": 38833, "ELEMENT_SET_NO": 999, "REV_AT_EPOCH": 9564, "BSTAR": 0, "MEAN_MOTION_DOT": 6.8e-07, "MEAN_MOTION_DDOT": 0}, "tle": {"line1": "1 38833U 12053A   25343.85972885  .00000068  00000+0  00000+0 0  9997", "line2": "2 38833  53.5569 151.3565 0175755  63.9530 297.8432  2.00564945 95646"}}, "geometry": {"type": "Point", "coordinates": [120.60082418346028, -34.62926063383207]}}, {"type": "Feature", "properties": {"norad_id": 39166, "name": "GPS BIIF-4  (PRN 27)", "group": "gps-ops", "lat": 41.75258146022128, "lon": -44.13454212167066, "alt_km": 19813.611569351295, "timestamp": "2025-12-11T07:02:23.989188+00:00", "meta": {"OBJECT_NAME": "GPS BIIF-4  (PRN 27)", "OBJECT_ID": "2013-023A", "EPOCH": "2025-12-10T05:20:05.649504", "MEAN_MOTION": 2.00565116, "ECCENTRICITY": 0.0137742, "INCLINATION": 54.6542, "RA_OF_ASC_NODE": 276.6706, "ARG_OF_PERICENTER": 48.5869, "MEAN_ANOMALY": 312.6037, "EPHEMERIS_TYPE": 0, "CLASSIFICATION_TYPE": "U", "NORAD_CAT_ID": 39166, "ELEMENT_SET_NO": 999, "REV_AT_EPOCH": 9209, "BSTAR": 0, "MEAN_MOTION_DOT": -5.9e-07, "MEAN_MOTION_DDOT": 0}, "tle": {"line1": "1 39166U 13023A   25344.22228761 -.00000059  00000+0  00000+0 0  9995", "line2": "2 39166  54.6542 276.6706 0137742  48.5869 312.6037  2.00565116 92099"}}, "geometry": {"type": "Point", "coordinates": [-44.13454212167066, 41.75258146022128]}}, {"type": "Feature", "properties": {"norad_id": 39533, "name": "GPS BIIF-5  (PRN 30)", "group": "gps-ops", "lat": 42.35949760556326, "lon": -160.79499199852555, "alt_km": 20382.801744610308, "timestamp": "2025-12-11T07:02:23.989199+00:00", "meta": {"OBJECT_NAME": "GPS BIIF-5  (PRN 30)", "OBJECT_ID": "2014-008A", "EPOCH": "2025-12-10T17:09:32.568192", "MEAN_MOTION": 2.00574306, "ECCENTRICITY": 0.00791586, "INCLINATION": 53.631, "RA_OF_ASC_NODE": 157.0072, "ARG_OF_PERICENTER": 226.4701, "MEAN_ANOMALY": 132.8778, "EPHEMERIS_TYPE": 0, "CLASSIFICATION_TYPE": "U", "NORAD_CAT_ID": 39533, "ELEMENT_SET_NO": 999, "REV_AT_EPOCH": 8590, "BSTAR": 0, "MEAN_MOTION_DOT": 7.7e-07, "MEAN_MOTION_DDOT": 0}, "tle": {"line1": "1 39533U 14008A   25344.71496028  .00000077  00000+0  00000+0 0  9993", "line2": "2 39533  53.6310 157.0072 0079158 226.4701 132.8778  2.00574306 85902"}}, "geometry": {"type": "Point", "coordinates": [-160.79499199852555, 42.35949760556326]}}, {"type": "Feature", "properties": {"norad_id": 39741, "name": "GPS BIIF-6  (PRN 06)", "group": "gps-ops", "lat": -26.63785291770466, "lon": 178.16371745556808, "alt_km": 20214.18086290543, "timestamp": "2025-12-11T07:02:23.989211+00:00", "meta": {"OBJECT_NAME": "GPS BIIF-6  (PRN 06)", "OBJECT_ID": "2014-026A", "EPOCH": "2025-12-10T11:59:17.120544", "MEAN_MOTION": 2.0056147, "ECCENTRICITY": 0.00391337, "INCLINATION": 56.5845, "RA_OF_ASC_NODE": 338.8635, "ARG_OF_PERICENTER": 318.5534, "MEAN_ANOMALY": 41.1613, "EPHEMERIS_TYPE": 0, "CLASSIFICATION_TYPE": "U", "NORAD_CAT_ID": 39741, "ELEMENT_SET_NO": 999, "REV_AT_EPOCH": 8475, "BSTAR": 0, "MEAN_MOTION_DOT": -8.5e-07, "MEAN_MOTION_DDOT": 0}, "tle": {"line1": "1 39741U 14026A   25344.49950371 -.00000085  00000+0  00000+0 0  9995", "line2": "2 39741  56.5845 338.8635 0039133 318.5534  41.1613  2.00561470 84758"}}, "geometry": {"type": "Point", "coordinates": [178.16371745556808, -26.63785291770466]}}, {"type": "Feature", "properties": {"norad_id": 40105, "name": "GPS BIIF-7  (PRN 09)", "group": "gps-ops", "lat": 23.8925480594979, "lon": -101.95254161767967, "alt_km": 20103.662992883408, "timestamp": "2025-12-11T07:02:23.989222+00:00", "meta": {"OBJECT_NAME": "GPS BIIF-7  (PRN 09)", "OBJECT_ID": "2014-045A", "EPOCH": "2025-12-10T14:05:32.873856", "MEAN_MOTION": 2.00572371, "ECCENTRICITY": 0.00327329, "INCLINATION": 55.2279, "RA_OF_ASC_NODE": 95.9848, "ARG_OF_PERICENTER": 119.8162, "MEAN_ANOMALY": 240.4986, "EPHEMERIS_TYPE": 0, "CLASSIFICATION_TYPE": "U", "NORAD_CAT_ID": 40105, "ELEMENT_SET_NO": 999, "REV_AT_EPOCH": 8229, "BSTAR": 0, "MEAN_MOTION_DOT": 0, "MEAN_MOTION_DDOT": 0}, "tle": {"line1": "1 40105U 14045A   25344.58718604  .00000000  00000+0  00000+0 0  9999", "line2": "2 40105  55.2279  95.9848 0032732 119.8162 240.4986  2.00572371 82291"}}, "geometry": {"type": "Point", "coordinates": [-101.95254161767967, 23.8925480594979]}}, {"type": "Feature", "properties": {"norad_id": 40294, "name": "GPS BIIF-8  (PRN 03)", "group": "gps-ops", "lat": -45.84559758905761, "lon": -99.52900684129388, "alt_km": 20346.45804418819, "timestamp": "2025-12-11T07:02:23.989234+00:00", "meta": {"OBJECT_NAME": "GPS BIIF-8  (PRN 03)", "OBJECT_ID": "2014-068A", "EPOCH": "2025-12-10T11:09:30.250944", "MEAN_MOTION": 2.00564629, "ECCENTRICITY": 0.0060788, "INCLINATION": 56.8561, "RA_OF_ASC_NODE": 38.234, "ARG_OF_PERICENTER": 69.2281, "MEAN_ANOMALY": 291.4749, "EPHEMERIS_TYPE": 0, "CLASSIFICATION_TYPE": "U", "NORAD_CAT_ID": 40294, "ELEMENT_SET_NO": 999, "REV_AT_EPOCH": 8142, "BSTAR": 0, "MEAN_MOTION_DOT": -8.9e-07, "MEAN_MOTION_DDOT": 0}, "tle": {"line1": "1 40294U 14068A   25344.46493346 -.00000089  00000+0  00000+0 0  9991", "line2": "2 40294  56.8561  38.2340 0060788  69.2281 291.4749  2.00564629 81424"}}, "geometry": {"type": "Point", "coordinates": [-99.52900684129388, -45.84559758905761]}}]}